SatCatId,ObjectName,LaunchYear,OrbitalPeriod,LaunchMass,StatusCode,Inclination,Status,UcsData,OrbitClassEstimated,LaunchSiteCountry,Owner,UseType,Purpose,LaunchVehicleClass,TLE1,TLE2,MeanMotion,Eccentricity,OrbitClass
44939,STARLINK-1083,2020,91.57,227.0,P,53.05,Active,1,LEO,USA,USA,Commercial,Communications,Falcon,1 44939U 20001AB  24177.37005849  .00024339  00000+0  18211-3 0  9995,2 44939  53.0523 214.6760 0003431  33.9233 326.2004 15.72564612246681,15.72564612,0.0003431,LEO
44940,STARLINK-1091,2020,95.59,227.0,+,53.05,Active,1,LEO,USA,USA,Commercial,Communications,Falcon,1 44940U 20001AC  24177.44654014  .00006313  00000+0  44222-3 0  9992,2 44940  53.0534 239.9763 0000869  89.8017 270.3072 15.06410072246333,15.06410072,8.69e-05,LEO
44941,STARLINK-1094,2020,95.59,227.0,+,53.05,Active,1,LEO,USA,USA,Commercial,Communications,Falcon,1 44941U 20001AD  24177.40229727 -.00000026  00000+0  17157-4 0  9992,2 44941  53.0544 240.1724 0001292  91.9229 268.1908 15.06392373246332,15.06392373,0.0001292,LEO
44942,STARLINK-1096,2020,93.96,227.0,P,53.01,Active,1,LEO,USA,USA,Commercial,Communications,Falcon,1 44942U 20001AE  24177.21522210  .00011419  00000+0  36884-3 0  9999,2 44942  53.0106 170.1195 0002834 318.4000  41.6783 15.32587833247307,15.32587833,0.0002834,LEO
44943,STARLINK-1100,2020,91.21,227.0,P,53.04,Active,1,LEO,USA,USA,Commercial,Communications,Falcon,1 44943U 20001AF  24177.50184074  .00125586  00000+0  69245-3 0  9992,2 44943  53.0440 194.0709 0009309  35.4554 324.7084 15.78758332246985,15.78758332,0.0009309,LEO
44944,STARLINK-1108,2020,95.59,227.0,+,53.05,Active,1,LEO,USA,USA,Commercial,Communications,Falcon,1 44944U 20001AG  24177.47970025  .00000534  00000+0  54766-4 0  9996,2 44944  53.0544 239.8274 0001419  96.9832 263.1319 15.06393750246348,15.0639375,0.0001419,LEO
44945,STARLINK-1109,2020,95.59,227.0,+,53.05,Active,1,LEO,USA,USA,Commercial,Communications,Falcon,1 44945U 20001AH  24177.44284568  .00000902  00000+0  79434-4 0  9992,2 44945  53.0545 239.9901 0001396  77.9271 282.1874 15.06392862246337,15.06392862,0.0001396,LEO
44949,STARLINK-1122,2020,95.59,227.0,+,53.05,Active,1,LEO,USA,USA,Commercial,Communications,Falcon,1 44949U 20001AM  24177.49075822  .00001057  00000+0  89830-4 0  9995,2 44949  53.0549 239.7779 0001029  90.1377 269.9729 15.06394427246345,15.06394427,0.0001029,LEO
44952,STARLINK-1117,2020,95.59,227.0,+,53.06,Active,1,LEO,USA,USA,Commercial,Communications,Falcon,1 44952U 20001AQ  24177.53867500  .00000730  00000+0  67926-4 0  9995,2 44952  53.0550 239.5599 0001246 103.0855 257.0273 15.06394023246350,15.06394023,0.0001246,LEO
44954,STARLINK-1066,2020,95.59,227.0,+,53.05,Active,1,LEO,USA,USA,Commercial,Communications,Falcon,1 44954U 20001AS  24177.43731442  .00000215  00000+0  33320-4 0  9990,2 44954  53.0541 220.0191 0001018  83.6447 276.4658 15.06392205246567,15.06392205,0.0001018,LEO
44959,STARLINK-1076,2020,95.59,227.0,+,53.05,Active,1,LEO,USA,USA,Commercial,Communications,Falcon,1 44959U 20001AX  24177.48151261  .00002089  00000+0  15903-3 0  9992,2 44959  53.0528 219.8154 0001062  87.1680 272.9431 15.06419366246624,15.06419366,0.0001062,LEO
44961,STARLINK-1080,2020,95.59,227.0,+,53.05,Active,1,LEO,USA,USA,Commercial,Communications,Falcon,1 44961U 20001AZ  24177.35622367  .00000365  00000+0  43410-4 0  9991,2 44961  53.0543 220.3848 0001192  88.5375 271.5751 15.06396076246612,15.06396076,0.0001192,LEO
44966,STARLINK-1088,2020,93.94,227.0,P,53.07,Active,1,LEO,USA,USA,Commercial,Communications,Falcon,1 44966U 20001BE  24177.26509066  .00013623  00000+0  43442-3 0  9991,2 44966  53.0654 171.9613 0004700  30.1698 329.9573 15.32824338247291,15.32824338,0.00047,LEO
44967,STARLINK-1089,2020,95.59,227.0,+,53.05,Active,1,LEO,USA,USA,Commercial,Communications,Falcon,1 44967U 20001BF  24177.42994149  .00000839  00000+0  75181-4 0  9991,2 44967  53.0538 220.0488 0000985  92.7961 267.3141 15.06395668246629,15.06395668,9.85e-05,LEO
44968,STARLINK-1090,2020,95.59,227.0,+,53.05,Active,1,LEO,USA,USA,Commercial,Communications,Falcon,1 44968U 20001BG  24177.49260149  .00000725  00000+0  67533-4 0  9991,2 44968  53.0540 219.7669 0001166  93.5479 266.5643 15.06395996246637,15.06395996,0.0001166,LEO
44969,STARLINK-1092,2020,95.59,227.0,+,53.05,Active,1,LEO,USA,USA,Commercial,Communications,Falcon,1 44969U 20001BH  24177.35253884 -.00000038  00000+0  16311-4 0  9991,2 44969  53.0547 220.3992 0001218  83.1545 276.9583 15.06393894246609,15.06393894,0.0001218,LEO
44970,STARLINK-1093,2020,95.59,227.0,+,53.05,Active,1,LEO,USA,USA,Commercial,Communications,Falcon,1 44970U 20001BJ  24177.39676167  .00000540  00000+0  55156-4 0  9997,2 44970  53.0535 220.1975 0000944  78.7994 281.3101 15.06398177246605,15.06398177,9.44e-05,LEO
44972,STARLINK-1107,2020,95.55,227.0,+,53.05,Active,1,LEO,USA,USA,Commercial,Communications,Falcon,1 44972U 20001BL  24177.48178970 -.00000301  00000+0 -12048-5 0  9999,2 44972  53.0534 219.6235 0000407 143.8388 216.2629 15.07035926246639,15.07035926,4.07e-05,LEO
44973,STARLINK-1115,2020,95.33,227.0,+,53.05,Active,1,LEO,USA,USA,Commercial,Communications,Falcon,1 44973U 20001BM  24177.38496105  .00014069  00000+0  85999-3 0  9999,2 44973  53.0517 219.2786 0004265   5.2686 354.8349 15.10511884246629,15.10511884,0.0004265,LEO
44978,TJS-5,2020,1436.03,-1.0,+,0.21,Active,1,GSO,PRC,China,Government,Communications,Long March,1 44978U 20002A   24177.54948771 -.00000337  00000+0  00000+0 0  9994,2 44978   0.2054 268.5568 0000840 314.6176 356.2775  1.00276335 16464,1.00276335,8.4e-05,GEO
45016,JILIN-1 KUANFU 01,2020,95.2,95.0,+,97.58,Active,1,LEO,PRC,China,Commercial,Earth Observation,Long March,1 45016U 20003A   24177.52150337  .00005159  00000+0  29796-3 0  9993,2 45016  97.5801 250.1198 0015047  74.4914 285.7977 15.12663638246312,15.12663638,0.0015047,LEO
45019,TIANQI-5,2020,90.99,9.0,+,97.1,Active,1,LEO,PRC,China,Commercial,Communications,Long March,1 45019U 20003D   24177.57298048  .00186343  00000+0  87304-3 0  9997,2 45019  97.0980 238.6367 0007479 186.7541 173.3629 15.82685514249245,15.82685514,0.0007479,LEO
45024,YINHE-1,2020,97.49,227.0,+,86.39,Active,1,LEO,PRC,China,Commercial,Communications,Kuaizhou,1 45024U 20004A   24177.58450341  .00001077  00000+0  14866-3 0  9994,2 45024  86.3940  79.4042 0014642  16.4811 343.6881 14.77095258239310,14.77095258,0.0014642,LEO
45026,GSAT-30,2020,1436.11,3357.0,+,0.07,Active,1,GSO,French Guiana,India,Government,Communications,Ariane,1 45026U 20005A   24177.33938470 -.00000158  00000+0  00000+0 0  9995,2 45026   0.0682  97.2204 0004009 355.8806  26.0411  1.00270845 16274,1.00270845,0.0004009,GEO
45027,EUTELSAT KONNECT,2020,1436.08,3618.0,+,0.06,Active,1,GSO,French Guiana,EUTELSAT,Commercial,Communications,Ariane,1 45027U 20005B   24176.74225882  .00000058  00000+0  00000+0 0  9994,2 45027   0.0626  90.7387 0000180 138.0562 319.0002  1.00273154 17086,1.00273154,1.8e-05,GEO
45044,STARLINK-1132,2020,95.59,227.0,+,53.05,Active,1,LEO,USA,USA,Commercial,Communications,Falcon,1 45044U 20006A   24177.31936118  .00000484  00000+0  51425-4 0  9994,2 45044  53.0539 180.5452 0001365  79.6894 280.4249 15.06391372242933,15.06391372,0.0001365,LEO
45047,STARLINK-1131,2020,95.64,227.0,+,53.05,Active,1,LEO,USA,USA,Commercial,Communications,Falcon,1 45047U 20006D   24177.39155468  .00000120  00000+0  27379-4 0  9994,2 45047  53.0540 200.3804 0000997  70.7794 289.3302 15.05578134242661,15.05578134,9.97e-05,LEO
45048,STARLINK-1134,2020,95.59,227.0,+,53.05,Active,1,LEO,USA,USA,Commercial,Communications,Falcon,1 45048U 20006E   24177.38386948  .00001248  00000+0  10264-3 0  9999,2 45048  53.0535 200.2530 0001338  93.6228 266.4914 15.06401742242663,15.06401742,0.0001338,LEO
45049,STARLINK-1135,2020,93.58,227.0,P,53.09,Active,1,LEO,USA,USA,Commercial,Communications,Falcon,1 45049U 20006F   24177.11240442  .00020597  00000+0  53854-3 0  9999,2 45049  53.0861 119.6257 0009692  21.0822 339.0579 15.38710739243817,15.38710739,0.0009692,LEO
45050,STARLINK-1140,2020,91.22,227.0,P,53.05,Active,1,LEO,USA,USA,Commercial,Communications,Falcon,1 45050U 20006G   24177.19283028  .00124703  00000+0  69070-3 0  9997,2 45050  53.0502 158.2761 0008180  50.8475 309.3271 15.78675060243231,15.7867506,0.000818,LEO
45052,STARLINK-1148,2020,95.26,227.0,P,53.05,Active,1,LEO,USA,USA,Commercial,Communications,Falcon,1 45052U 20006J   24177.32445998  .00007899  00000+0  47686-3 0  9995,2 45052  53.0523 199.0159 0004239   8.2123 351.8937 15.11578221242674,15.11578221,0.0004239,LEO
45053,STARLINK-1155,2020,92.15,227.0,P,52.98,Active,1,LEO,USA,USA,Commercial,Communications,Falcon,1 45053U 20006K   24176.90850255  .00116845  00000+0  12620-2 0  9996,2 45053  52.9803  53.9250 0008877  67.2845 292.9105 15.62743224244590,15.62743224,0.0008877,LEO
45054,STARLINK-1156,2020,95.59,227.0,+,53.05,Active,1,LEO,USA,USA,Commercial,Communications,Falcon,1 45054U 20006L   24177.33226373  .00000127  00000+0  27442-4 0  9998,2 45054  53.0538 200.4867 0001347  78.7002 281.4139 15.06393064242654,15.06393064,0.0001347,LEO
45057,STARLINK-1159,2020,95.59,227.0,+,53.05,Active,1,LEO,USA,USA,Commercial,Communications,Falcon,1 45057U 20006P   24177.34700704  .00000371  00000+0  43813-4 0  9998,2 45057  53.0543 200.4226 0001233  97.7600 262.3529 15.06397131242662,15.06397131,0.0001233,LEO
45058,STARLINK-1162,2020,95.59,227.0,P,53.05,Active,1,LEO,USA,USA,Commercial,Communications,Falcon,1 45058U 20006Q   24177.33962893  .00000243  00000+0  35172-4 0  9994,2 45058  53.0537 200.4557 0001164  86.1422 273.9700 15.06396947242663,15.06396947,0.0001164,LEO
45059,STARLINK-1165,2020,91.19,227.0,P,53.04,Active,1,LEO,USA,USA,Commercial,Communications,Falcon,1 45059U 20006R   24177.58334491  .00081854  00000+0  44642-3 0  9997,2 45059  53.0439 156.0908 0006868  54.6384 298.9904 15.79203922  6069,15.79203922,0.0006868,LEO
